ONEWEB-0158             
1 48054U 21025N   24355.44988540  .00000115  00000+0  28059-3 0  9995
2 48054  87.8924  68.3499 0001914 101.4551 258.6794 13.13471081182250
ONEWEB-0157             
1 48055U 21025P   24355.47367974 -.00000229  00000+0 -66304-3 0  9994
2 48055  87.8924  68.3576 0001933 117.7201 242.4124 13.13471841182207
ONEWEB-0162             
1 48056U 21025Q   24355.28482424  .00000434  00000+0  11526-2 0  9993
2 48056  87.8920  68.3887 0001850 103.4955 256.6380 13.13472501182121
ONEWEB-0155             
1 48057U 21025R   24355.45780784 -.00000066  00000+0 -21549-3 0  9993
2 48057  87.8923  68.3673 0001665 108.7437 251.3873 13.13471168182313
ONEWEB-0149             
1 48058U 21025S   24355.47845304 -.00000155  00000+0 -45874-3 0  9992
2 48058  87.8921  68.3586 0001983 100.6572 259.4780 13.13470522182127
ONEWEB-0148             
1 48059U 21025T   24354.75794169  .00000113  00000+0  27458-3 0  9995
2 48059  87.8928  68.5196 0002533 106.4408 253.6999 13.13469409182140
ONEWEB-0160             
1 48060U 21025U   24355.45939755 -.00000125  00000+0 -37702-3 0  9995
2 48060  87.8928  68.3758 0001559  74.0803 286.0498 13.13471962182185
ONEWEB-0163             
1 48061U 21025V   24355.44511558  .00000263  00000+0  68411-3 0  9994
2 48061  87.8924  68.3658 0001927 112.5946 247.5387 13.13472583182310
